[
    {
        "Altitude(m)": 702723.960263796,
        "Argument of Periapsis(deg)": 0.0034170363559881197,
        "Eccentricity": 0.0,
        "Inclination(deg)": 45.0,
        "Latitude(deg)": 9.076594078952272,
        "Longitude(deg)": 85.64660691689096,
        "Mean Anomaly(deg)": 167.09636499424425,
        "RAAN(deg)": 14.996774417562538,
        "Satellite Name": "Constellation 1 76",
        "Satellite Number": 76,
        "Semi-Major Axis(m)": 7083131.272910544,
        "Time(s)": 57
    },
    {
        "Altitude(m)": 702725.2265394023,
        "Argument of Periapsis(deg)": 0.003476984362233526,
        "Eccentricity": 0.0,
        "Inclination(deg)": 45.0,
        "Latitude(deg)": 9.033923857303,
        "Longitude(deg)": 85.68644840359848,
        "Mean Anomaly(deg)": 167.1570661344942,
        "RAAN(deg)": 14.996717828396969,
        "Satellite Name": "Constellation 1 76",
        "Satellite Number": 76,
        "Semi-Major Axis(m)": 7083131.272910544,
        "Time(s)": 58
    },
    {
        "Altitude(m)": 702726.5127576916,
        "Argument of Periapsis(deg)": 0.003536932368478932,
        "Eccentricity": 0.0,
        "Inclination(deg)": 45.0,
        "Latitude(deg)": 8.991248322083457,
        "Longitude(deg)": 85.72627934375744,
        "Mean Anomaly(deg)": 167.21776727474403,
        "RAAN(deg)": 14.996661239231397,
        "Satellite Name": "Constellation 1 76",
        "Satellite Number": 76,
        "Semi-Major Axis(m)": 7083131.272910544,
        "Time(s)": 59
    },
    {
        "Altitude(m)": 702727.8189314017,
        "Argument of Periapsis(deg)": 0.003596880374724337,
        "Eccentricity": 0.0,
        "Inclination(deg)": 45.0,
        "Latitude(deg)": 8.94856750031788,
        "Longitude(deg)": 85.76610012424415,
        "Mean Anomaly(deg)": 167.27846841499397,
        "RAAN(deg)": 14.99660465006583,
        "Satellite Name": "Constellation 1 76",
        "Satellite Number": 76,
        "Semi-Major Axis(m)": 7083131.272910544,
        "Time(s)": 60
    },
    {
        "Altitude(m)": 702729.1450731796,
        "Argument of Periapsis(deg)": 0.0036568283809697427,
        "Eccentricity": 0.0,
        "Inclination(deg)": 45.0,
        "Latitude(deg)": 8.905881419010765,
        "Longitude(deg)": 85.80591062762154,
        "Mean Anomaly(deg)": 167.33916955524384,
        "RAAN(deg)": 14.996548060900261,
        "Satellite Name": "Constellation 1 76",
        "Satellite Number": 76,
        "Semi-Major Axis(m)": 7083131.272910544,
        "Time(s)": 61
    },
    {
        "Altitude(m)": 702730.4911955884,
        "Argument of Periapsis(deg)": 0.003716776387215149,
        "Eccentricity": 0.0,
        "Inclination(deg)": 45.0,
        "Latitude(deg)": 8.863190105146709,
        "Longitude(deg)": 85.84571090452842,
        "Mean Anomaly(deg)": 167.39987069549377,
        "RAAN(deg)": 14.99649147173469,
        "Satellite Name": "Constellation 1 76",
        "Satellite Number": 76,
        "Semi-Major Axis(m)": 7083131.272910544,
        "Time(s)": 62
    },
    {
        "Altitude(m)": 702731.8573111014,
        "Argument of Periapsis(deg)": 0.003776724393460554,
        "Eccentricity": 0.0,
        "Inclination(deg)": 45.0,
        "Latitude(deg)": 8.82049358569073,
        "Longitude(deg)": 85.88550100558201,
        "Mean Anomaly(deg)": 167.46057183574365,
        "RAAN(deg)": 14.99643488256912,
        "Satellite Name": "Constellation 1 76",
        "Satellite Number": 76,
        "Semi-Major Axis(m)": 7083131.272910544,
        "Time(s)": 63
    },
    {
        "Altitude(m)": 702733.2434321136,
        "Argument of Periapsis(deg)": 0.003836672399705959,
        "Eccentricity": 0.0,
        "Inclination(deg)": 45.0,
        "Latitude(deg)": 8.77779188758819,
        "Longitude(deg)": 85.92528098137831,
        "Mean Anomaly(deg)": 167.52127297599358,
        "RAAN(deg)": 14.99637829340355,
        "Satellite Name": "Constellation 1 76",
        "Satellite Number": 76,
        "Semi-Major Axis(m)": 7083131.272910544,
        "Time(s)": 64
    },
    {
        "Altitude(m)": 702734.6495709205,
        "Argument of Periapsis(deg)": 0.003896620405951365,
        "Eccentricity": 0.0,
        "Inclination(deg)": 45.0,
        "Latitude(deg)": 8.735085037764994,
        "Longitude(deg)": 85.96505088249201,
        "Mean Anomaly(deg)": 167.58197411624343,
        "RAAN(deg)": 14.996321704237982,
        "Satellite Name": "Constellation 1 76",
        "Satellite Number": 76,
        "Semi-Major Axis(m)": 7083131.272910544,
        "Time(s)": 65
    },
    {
        "Altitude(m)": 702736.0757397428,
        "Argument of Periapsis(deg)": 0.003956568412196771,
        "Eccentricity": 0.0,
        "Inclination(deg)": 45.0,
        "Latitude(deg)": 8.692373063127713,
        "Longitude(deg)": 86.00481075947661,
        "Mean Anomaly(deg)": 167.64267525649336,
        "RAAN(deg)": 14.996265115072413,
        "Satellite Name": "Constellation 1 76",
        "Satellite Number": 76,
        "Semi-Major Axis(m)": 7083131.272910544,
        "Time(s)": 66
    },
    {
        "Altitude(m)": 702737.5219507134,
        "Argument of Periapsis(deg)": 0.004016516418442176,
        "Eccentricity": 0.0,
        "Inclination(deg)": 45.0,
        "Latitude(deg)": 8.64965599056352,
        "Longitude(deg)": 86.04456049476741,
        "Mean Anomaly(deg)": 167.70337639674327,
        "RAAN(deg)": 14.996208525906843,
        "Satellite Name": "Constellation 1 76",
        "Satellite Number": 76,
        "Semi-Major Axis(m)": 7083131.272910544,
        "Time(s)": 67
    },
    {
        "Altitude(m)": 702738.988215871,
        "Argument of Periapsis(deg)": 0.004076464424687581,
        "Eccentricity": 0.0,
        "Inclination(deg)": 45.0,
        "Latitude(deg)": 8.606933846940674,
        "Longitude(deg)": 86.08430047507002,
        "Mean Anomaly(deg)": 167.76407753699317,
        "RAAN(deg)": 14.996151936741274,
        "Satellite Name": "Constellation 1 76",
        "Satellite Number": 76,
        "Semi-Major Axis(m)": 7083131.272910544,
        "Time(s)": 68
    },
    {
        "Altitude(m)": 702740.4745471781,
        "Argument of Periapsis(deg)": 0.004136412430932987,
        "Eccentricity": 0.0,
        "Inclination(deg)": 45.0,
        "Latitude(deg)": 8.56420665910801,
        "Longitude(deg)": 86.12403058277793,
        "Mean Anomaly(deg)": 167.82477867724305,
        "RAAN(deg)": 14.996095347575702,
        "Satellite Name": "Constellation 1 76",
        "Satellite Number": 76,
        "Semi-Major Axis(m)": 7083131.272910544,
        "Time(s)": 69
    },
    {
        "Altitude(m)": 702741.9809564973,
        "Argument of Periapsis(deg)": 0.004196360437178394,
        "Eccentricity": 0.0,
        "Inclination(deg)": 45.0,
        "Latitude(deg)": 8.521474453895594,
        "Longitude(deg)": 86.1637508683608,
        "Mean Anomaly(deg)": 167.88547981749298,
        "RAAN(deg)": 14.996038758410135,
        "Satellite Name": "Constellation 1 76",
        "Satellite Number": 76,
        "Semi-Major Axis(m)": 7083131.272910544,
        "Time(s)": 70
    },
    {
        "Altitude(m)": 702743.5074556156,
        "Argument of Periapsis(deg)": 0.004256308443423799,
        "Eccentricity": 0.0,
        "Inclination(deg)": 45.0,
        "Latitude(deg)": 8.478737258114517,
        "Longitude(deg)": 86.20346138226765,
        "Mean Anomaly(deg)": 167.94618095774283,
        "RAAN(deg)": 14.995982169244567,
        "Satellite Name": "Constellation 1 76",
        "Satellite Number": 76,
        "Semi-Major Axis(m)": 7083131.272910544,
        "Time(s)": 71
    },
    {
        "Altitude(m)": 702745.0540562277,
        "Argument of Periapsis(deg)": 0.004316256449669204,
        "Eccentricity": 0.0,
        "Inclination(deg)": 45.0,
        "Latitude(deg)": 8.435995098557095,
        "Longitude(deg)": 86.24316217492682,
        "Mean Anomaly(deg)": 168.00688209799276,
        "RAAN(deg)": 14.995925580078994,
        "Satellite Name": "Constellation 1 76",
        "Satellite Number": 76,
        "Semi-Major Axis(m)": 7083131.272910544,
        "Time(s)": 72
    },
    {
        "Altitude(m)": 702746.6207699479,
        "Argument of Periapsis(deg)": 0.00437620445591461,
        "Eccentricity": 0.0,
        "Inclination(deg)": 45.0,
        "Latitude(deg)": 8.393248001997001,
        "Longitude(deg)": 86.28285329674607,
        "Mean Anomaly(deg)": 168.06758323824263,
        "RAAN(deg)": 14.995868990913426,
        "Satellite Name": "Constellation 1 76",
        "Satellite Number": 76,
        "Semi-Major Axis(m)": 7083131.272910544,
        "Time(s)": 73
    },
    {
        "Altitude(m)": 702748.2076082918,
        "Argument of Periapsis(deg)": 0.004436152462160016,
        "Eccentricity": 0.0,
        "Inclination(deg)": 45.0,
        "Latitude(deg)": 8.350495995189164,
        "Longitude(deg)": 86.32253463001567,
        "Mean Anomaly(deg)": 168.12828437849257,
        "RAAN(deg)": 14.995812401747855,
        "Satellite Name": "Constellation 1 76",
        "Satellite Number": 76,
        "Semi-Major Axis(m)": 7083131.272910544,
        "Time(s)": 74
    },
    {
        "Altitude(m)": 702749.8145827012,
        "Argument of Periapsis(deg)": 0.0044961004684054215,
        "Eccentricity": 0.0,
        "Inclination(deg)": 45.0,
        "Latitude(deg)": 8.30773910487035,
        "Longitude(deg)": 86.36220656129665,
        "Mean Anomaly(deg)": 168.18898551874247,
        "RAAN(deg)": 14.995755812582287,
        "Satellite Name": "Constellation 1 76",
        "Satellite Number": 76,
        "Semi-Major Axis(m)": 7083131.272910544,
        "Time(s)": 75
    }
]